     2.100          NAVIGATION                              RINEX VERSION / TYPE
fic2rin                                 05/12/2017 00:22:03 PGM / RUN BY / DATE
                                                            END OF HEADER
 4 17  5 11 10  0  0.0  .331923365593D-05  .682121026330D-12  .000000000000D+00
     .380000000000D+02 -.766250000000D+02  .538308136980D-08 -.225253807210D+01
    -.388547778130D-05  .920193560887D-02  .238791108131D-05  .515375123978D+04
     .381600000000D+06  .298023223877D-07  .206767341247D+01 -.540167093277D-07
     .981810456118D+00  .344562500000D+03  .903036232318D+00 -.803176312660D-08
    -.252153360342D-09  .100000000000D+01  .194800000000D+04  .000000000000D+00
     .240000000000D+01  .630000000000D+02 -.195577740669D-07  .380000000000D+02
     .375666000000D+06  .400000000000D+01
16 17  5 11  9 59 44.0  .330614857376D-04  .682121026330D-12  .000000000000D+00
     .140000000000D+02 -.840312500000D+02  .400552398901D-08 -.240821576785D+01
    -.431016087532D-05  .936920067761D-02  .273436307907D-05  .515369205856D+04
     .381584000000D+06  .000000000000D+00  .211841566671D+01 -.651925802231D-07
     .989577282769D+00  .343375000000D+03  .446278509017D+00 -.799604735318D-08
    -.251439044874D-09  .100000000000D+01  .194800000000D+04  .000000000000D+00
     .240000000000D+01  .000000000000D+00 -.107102096081D-07  .140000000000D+02
     .377706000000D+06  .400000000000D+01
13 17  5 11  9 59 44.0 -.813561491668D-04 -.147792889038D-11  .000000000000D+00
     .100000000000D+01  .464375000000D+02  .415124434456D-08  .123442549841D+01
     .236183404922D-05  .378066464327D-02  .111628323793D-04  .515369432259D+04
     .381584000000D+06 -.149011611938D-07  .627237405584D-01 -.819563865662D-07
     .970165299050D+00  .169531250000D+03  .184000388103D+01 -.770424948434D-08
    -.219294848796D-09  .100000000000D+01  .194800000000D+04  .000000000000D+00
     .240000000000D+01  .000000000000D+00 -.111758708954D-07  .100000000000D+01
     .377736000000D+06  .400000000000D+01
15 17  5 11  9 59 44.0 -.349664594978D-03 -.795807864051D-12  .000000000000D+00
     .280000000000D+02  .157812500000D+02  .514021411055D-08  .205789009369D+01
     .828877091408D-06  .913136068266D-02  .112242996693D-04  .515379839706D+04
     .381584000000D+06 -.245869159698D-06 -.124321193654D+00 -.745058059692D-08
     .929637191509D+00  .149531250000D+03  .580211944888D+00 -.813783897366D-08
    -.365015204348D-09  .100000000000D+01  .194800000000D+04  .000000000000D+00
     .240000000000D+01  .000000000000D+00 -.107102096081D-07  .280000000000D+02
     .378126000000D+06  .400000000000D+01
13 17  5 11 11 59 44.0 -.813668593764D-04 -.147792889038D-11  .000000000000D+00
     .200000000000D+01  .411250000000D+02  .414838708269D-08  .228490026455D+01
     .208616256714D-05  .378073554020D-02  .114813446999D-04  .515369214439D+04
     .388784000000D+06  .335276126862D-07  .626687597082D-01 -.149011611938D-07
     .970163944388D+00  .162656250000D+03  .183969550961D+01 -.763210362204D-08
    -.239652839646D-09  .100000000000D+01  .194800000000D+04  .000000000000D+00
     .240000000000D+01  .000000000000D+00 -.111758708954D-07  .200000000000D+01
     .381606000000D+06  .400000000000D+01
15 17  5 11 11 59 44.0 -.349670182914D-03 -.795807864051D-12  .000000000000D+00
     .330000000000D+02  .131250000000D+02  .508985487003D-08  .310799485420D+01
     .618398189545D-06  .913162890356D-02  .111926347017D-04  .515379800797D+04
     .388784000000D+06 -.100582838058D-06 -.124379284668D+00 -.117346644402D-06
     .929635256068D+00  .148187500000D+03  .580216103964D+00 -.800569061201D-08
    -.339657005220D-09  .100000000000D+01  .194800000000D+04  .000000000000D+00
     .240000000000D+01  .000000000000D+00 -.107102096081D-07  .330000000000D+02
     .381606000000D+06  .400000000000D+01
16 17  5 11 11 59 44.0  .330666080117D-04  .682121026330D-12  .000000000000D+00
     .150000000000D+02 -.809375000000D+02  .398980904870D-08 -.135803640291D+01
    -.415369868279D-05  .936890393496D-02  .275112688541D-05  .515369244957D+04
     .388784000000D+06  .987201929092D-07  .211835836713D+01 -.119209289551D-06
     .989575282960D+00  .340875000000D+03  .446264412338D+00 -.802640576059D-08
    -.316798910232D-09  .100000000000D+01  .194800000000D+04  .000000000000D+00
     .240000000000D+01  .000000000000D+00 -.107102096081D-07  .150000000000D+02
     .381606000000D+06  .400000000000D+01
 1 17  5 11 12  0  0.0  .545247457922D-04  .454747350886D-12  .000000000000D+00
     .490000000000D+02  .327187500000D+02  .443768484739D-08  .186312583378D+01
     .168569386005D-05  .658595317509D-02  .801682472229D-05  .515368475342D+04
     .388800000000D+06 -.102445483208D-06 -.214222327599D+01  .726431608200D-07
     .967122947318D+00  .226406250000D+03  .541506994614D+00 -.798461830569D-08
     .633597820464D-09  .100000000000D+01  .194800000000D+04  .000000000000D+00
     .240000000000D+01  .000000000000D+00  .558793544769D-08  .490000000000D+02
     .381606000000D+06  .400000000000D+01
 2 17  5 11 12  0  0.0  .421918462962D-03 -.773070496507D-11  .000000000000D+00
     .190000000000D+02  .273437500000D+02  .470591030577D-08  .218492119241D+01
     .134482979774D-05  .167947389418D-01  .824406743050D-05  .515378201866D+04
     .388800000000D+06  .707805156708D-07 -.219527043959D+01 -.398606061935D-06
     .946087202067D+00  .209312500000D+03 -.198198416363D+01 -.788925719066D-08
     .657170230921D-09  .100000000000D+01  .194800000000D+04  .000000000000D+00
     .240000000000D+01  .000000000000D+00 -.204890966415D-07  .190000000000D+02
     .381606000000D+06  .400000000000D+01
 3 17  5 11 12  0  0.0 -.100951176137D-03  .170530256582D-11  .000000000000D+00
     .780000000000D+02 -.235625000000D+02  .500413701382D-08  .122078230100D+01
    -.146590173244D-05  .637682853267D-03  .535883009434D-05  .515373434639D+04
     .388800000000D+06  .409781932831D-07 -.109948805601D+01  .186264514923D-08
     .959448977930D+00  .277906250000D+03  .680103388236D-01 -.824534345165D-08
    -.243224416988D-09  .100000000000D+01  .194800000000D+04  .000000000000D+00
     .340000000000D+01  .000000000000D+00  .232830643654D-08  .780000000000D+02
     .381606000000D+06  .400000000000D+01
 4 17  5 11 12  0  0.0  .332435593009D-05  .682121026330D-12  .000000000000D+00
     .610000000000D+02 -.662812500000D+02  .552273004387D-08 -.120255127253D+01
    -.343099236488D-05  .920190208126D-02  .248476862907D-05  .515374861717D+04
     .388800000000D+06  .163912773132D-06  .206761593150D+01  .109896063805D-06
     .981807754108D+00  .341718750000D+03  .903189582706D+00 -.817819779762D-08
    -.367158150754D-09  .100000000000D+01  .194800000000D+04  .000000000000D+00
     .240000000000D+01  .630000000000D+02 -.195577740669D-07  .610000000000D+02
     .381606000000D+06  .400000000000D+01
 5 17  5 11 12  0  0.0 -.465228222311D-04  .181898940355D-11  .000000000000D+00
     .180000000000D+02 -.249375000000D+02  .525414742776D-08 -.147194766755D+01
    -.139884650707D-05  .495249428786D-02  .460632145405D-05  .515373385048D+04
     .388800000000D+06  .670552253723D-07 -.111611099226D+01 -.409781932831D-07
     .946404219340D+00  .276718750000D+03  .536206213358D+00 -.837892044424D-08
    -.129648257513D-09  .100000000000D+01  .194800000000D+04  .000000000000D+00
     .240000000000D+01  .000000000000D+00 -.107102096081D-07  .180000000000D+02
     .381606000000D+06  .400000000000D+01
 6 17  5 11 12  0  0.0  .349452719092D-03  .500222085975D-11  .000000000000D+00
     .910000000000D+02  .270000000000D+02  .434125225915D-08  .199092178556D+01
     .149197876453D-05  .807648408227D-03  .805221498013D-05  .515366551971D+04
     .388800000000D+06  .223517417908D-07 -.215060261620D+01 -.745058059692D-08
     .966906580272D+00  .226781250000D+03 -.114466600624D+01 -.786139888739D-08
     .624668877109D-09  .100000000000D+01  .194800000000D+04  .000000000000D+00
     .240000000000D+01  .000000000000D+00  .465661287308D-08  .910000000000D+02
     .381606000000D+06  .400000000000D+01
 7 17  5 11 12  0  0.0  .352717936039D-03 -.432009983342D-11  .000000000000D+00
     .120000000000D+02  .116343750000D+03  .467483758289D-08  .124084817545D+01
     .627525150776D-05  .104400905548D-01  .558979809284D-05  .515374881363D+04
     .388800000000D+06 -.372529029846D-08  .101498591252D+01  .137835741043D-06
     .962534121478D+00  .273625000000D+03 -.260433472941D+01 -.841749347953D-08
     .161435295857D-09  .100000000000D+01  .194800000000D+04  .000000000000D+00
     .240000000000D+01  .000000000000D+00 -.111758708954D-07  .120000000000D+02
     .381606000000D+06  .400000000000D+01
 8 17  5 11 12  0  0.0 -.593289732933D-04 -.125055521494D-11  .000000000000D+00
     .360000000000D+02 -.930312500000D+02  .394409285873D-08 -.174196340795D+01
    -.477395951748D-05  .258269091137D-02  .114254653454D-04  .515363676643D+04
     .388800000000D+06 -.111758708954D-07  .307858089372D+01  .875443220139D-07
     .966977881436D+00  .164500000000D+03 -.692943554806D+00 -.773960810003D-08
     .139291516336D-10  .100000000000D+01  .194800000000D+04  .000000000000D+00
     .240000000000D+01  .000000000000D+00  .512227416039D-08  .360000000000D+02
     .381606000000D+06  .400000000000D+01
 9 17  5 11 12  0  0.0  .360991340131D-03  .795807864051D-11  .000000000000D+00
     .660000000000D+02  .292812500000D+02  .457304762865D-08 -.224540351571D+01
     .158324837685D-05  .763759482652D-03  .119525939226D-04  .515364384460D+04
     .388800000000D+06 -.149011611938D-07 -.632284063341D-01 -.372529029846D-07
     .954046030864D+00  .147781250000D+03  .191849531545D+01 -.787568519676D-08
    -.314655963827D-09  .100000000000D+01  .194800000000D+04  .000000000000D+00
     .240000000000D+01  .000000000000D+00  .139698386192D-08  .660000000000D+02
     .381606000000D+06  .400000000000D+01
